STARLINK-3556           
1 51877U 22022AB  26068.19212839 -.00000095  00000+0  12108-4 0  9993
2 51877  53.2195   1.3541 0001378  92.7699 267.3451 15.08839706223170
LEMUR-2-SIERRINI        
1 60579U 24149DR  26068.80891719  .00014386  00000+0  92040-3 0  9991
2 60579  97.6873 151.1225 0006580 147.8458 212.3173 15.08682764 85461
