[{"OBJECT_NAME":"STARLINK-3556","OBJECT_ID":"2022-022AB","EPOCH":"2026-03-09T04:36:39.892896","MEAN_MOTION":15.08839706,"ECCENTRICITY":0.0001378,"INCLINATION":53.2195,"RA_OF_ASC_NODE":1.3541,"ARG_OF_PERICENTER":92.7699,"MEAN_ANOMALY":267.3451,"EPHEMERIS_TYPE":0,"CLASSIFICATION_TYPE":"U","NORAD_CAT_ID":51877,"ELEMENT_SET_NO":999,"REV_AT_EPOCH":22317,"BSTAR":1.2108162e-5,"MEAN_MOTION_DOT":-9.5e-7,"MEAN_MOTION_DDOT":0},{"OBJECT_NAME":"LEMUR-2-SIERRINI","OBJECT_ID":"2024-149DR","EPOCH":"2026-03-09T19:24:50.445216","MEAN_MOTION":15.08682764,"ECCENTRICITY":0.00065795,"INCLINATION":97.6873,"RA_OF_ASC_NODE":151.1225,"ARG_OF_PERICENTER":147.8458,"MEAN_ANOMALY":212.3173,"EPHEMERIS_TYPE":0,"CLASSIFICATION_TYPE":"U","NORAD_CAT_ID":60579,"ELEMENT_SET_NO":999,"REV_AT_EPOCH":8546,"BSTAR":0.00092040134,"MEAN_MOTION_DOT":0.00014386,"MEAN_MOTION_DDOT":0}]
